[{"OBJECT_NAME":"STARLINK-34096","OBJECT_ID":"2025-102X","EPOCH":"2026-03-09T12:16:41.946240","MEAN_MOTION":14.9833116,"ECCENTRICITY":0.00037929,"INCLINATION":70.0002,"RA_OF_ASC_NODE":114.9789,"ARG_OF_PERICENTER":267.5926,"MEAN_ANOMALY":92.4799,"EPHEMERIS_TYPE":0,"CLASSIFICATION_TYPE":"U","NORAD_CAT_ID":64043,"ELEMENT_SET_NO":999,"REV_AT_EPOCH":4581,"BSTAR":0.00029331627,"MEAN_MOTION_DOT":3.409e-5,"MEAN_MOTION_DDOT":0},{"OBJECT_NAME":"USA 40 R\/B DEB","OBJECT_ID":"1989-061AA","EPOCH":"2026-03-09T13:41:40.333344","MEAN_MOTION":8.7731412,"ECCENTRICITY":0.3017068,"INCLINATION":56.9845,"RA_OF_ASC_NODE":167.5669,"ARG_OF_PERICENTER":95.7565,"MEAN_ANOMALY":298.9765,"EPHEMERIS_TYPE":0,"CLASSIFICATION_TYPE":"U","NORAD_CAT_ID":23354,"ELEMENT_SET_NO":999,"REV_AT_EPOCH":22188,"BSTAR":0.00073745,"MEAN_MOTION_DOT":6.5e-6,"MEAN_MOTION_DDOT":0}]
